BEIDOU 3 (C01)          
1 36287U 10001A   21260.89131226 -.00000304  00000-0  00000-0 0  9999
2 36287   1.6428  40.0733 0003549  73.7068 344.5879  1.00270555 42784
BEIDOU 5 (C06)          
1 36828U 10036A   21260.88506468 -.00000180  00000-0  00000-0 0  9993
2 36828  54.1839 178.7407 0023138 182.0203  62.1236  1.00276962 40845
BEIDOU 6 (C04)          
1 37210U 10057A   21260.89514986 -.00000137  00000-0  00000-0 0  9999
2 37210   0.9974  55.7495 0006686 135.3856 288.1002  1.00270058 39901
BEIDOU 7 (C07)          
1 37256U 10068A   21260.64661719 -.00000173  00000-0  00000+0 0  9990
2 37256  50.7048 292.9029 0019612 185.9828 219.2080  1.00301576 39414
BEIDOU 8 (C08)          
1 37384U 11013A   21261.26324344 -.00000156  00000-0  00000+0 0  9993
2 37384  59.9088  56.9675 0018549 179.6698 321.6502  1.00280875 38299
BEIDOU 9 (C09)          
1 37763U 11038A   21261.16824398 -.00000128  00000-0  00000+0 0  9993
2 37763  54.4717 181.1973 0086547 226.9766 102.8441  1.00290704 37265
BEIDOU 10 (C10)         
1 37948U 11073A   21260.55118697 -.00000126  00000-0  00000-0 0  9996
2 37948  50.8073 292.5324 0078928 217.0540 141.8625  1.00272591 36010
BEIDOU 11 (C05)         
1 38091U 12008A   21261.16212454  .00000034  00000-0  00000+0 0  9995
2 38091   1.7500  70.0249 0003649 336.5467  67.9070  1.00266647 35104
BEIDOU 12 (C11)         
1 38250U 12018A   21260.38679073 -.00000116  00000-0  00000-0 0  9993
2 38250  56.7486   2.5800 0022335 243.9785 127.4037  1.86234391 64005
BEIDOU 13 (C12)         
1 38251U 12018B   21260.47182780 -.00000116  00000-0  00000-0 0  9998
2 38251  56.6693   1.9201 0013310 243.1009 229.6444  1.86234166 64004
BEIDOU 15 (C14)         
1 38775U 12050B   21261.01665666  .00000017  00000-0  00000+0 0  9993
2 38775  55.2502 120.8629 0013225 328.1726 347.1519  1.86231418 61383
BEIDOU 16 (C02)         
1 38953U 12059A   21261.03166087 -.00000199  00000-0  00000+0 0  9997
2 38953   1.3178  84.3248 0009419 292.6202  75.5370  1.00275724 32678
BEIDOU 17 (C31)         
1 40549U 15019A   21260.63868985 -.00000142  00000-0  00000-0 0  9990
2 40549  52.3474 315.9234 0038112 188.8405 172.8064  1.00299843 23701
BEIDOU 18 (C57)         
1 40748U 15037A   21260.87093593 -.00000117  00000-0  00000+0 0  9993
2 40748  55.9280   0.9384 0001524  47.8576 242.2541  1.86233208 41836
BEIDOU 19 (C58)         
1 40749U 15037B   21260.66818869 -.00000117  00000-0  00000-0 0  9993
2 40749  55.9315   0.9335 0002529 300.0840 349.7945  1.86232200 41827
BEIDOU 20 (C18)         
1 40938U 15053A   21260.52333892 -.00000094  00000-0  00000-0 0  9998
2 40938  51.9243 279.0049 0048193 196.1408 165.3158  1.00262292 21977
BEIDOU IGSO-6 (C13)     
1 41434U 16021A   21260.60248966 -.00000125  00000-0  00000+0 0  9996
2 41434  57.7076  55.6822 0042934 210.5624  40.1976  1.00294328 20097
BEIDOU-2 G7 (C03)       
1 41586U 16037A   21261.02885524 -.00000377  00000-0  00000+0 0  9994
2 41586   1.8956  68.9270 0008389  15.0310  34.1040  1.00276052 19404
BEIDOU-3 M1 (C19)       
1 43001U 17069A   21260.75134351  .00000015  00000-0  00000-0 0  9997
2 43001  55.4035 120.8354 0008441 295.7145 357.7377  1.86231950 26311
BEIDOU-3 M2 (C20)       
1 43002U 17069B   21260.76290931  .00000015  00000-0  00000-0 0  9996
2 43002  55.4027 120.8695 0007467 321.9924  22.5487  1.86231498 26300
BEIDOU-3 M3 (C27)       
1 43107U 18003A   21260.55780708 -.00000118  00000-0  00000-0 0  9999
2 43107  55.3728   1.9874 0004295  65.8596 307.0868  1.86232632 25074
BEIDOU-3 M4 (C28)       
1 43108U 18003B   21260.87576375 -.00000118  00000-0  00000+0 0  9997
2 43108  55.3637   1.9625 0003633 226.4904  44.7970  1.86232104 25074
BEIDOU-3 M5 (C21)       
1 43207U 18018A   21260.91840677  .00000017  00000-0  00000+0 0  9994
2 43207  55.3627 120.9527 0005625 351.5364   8.5546  1.86231803 24463
BEIDOU-3 M6 (C22)       
1 43208U 18018B   21261.24205958  .00000019  00000-0  00000+0 0  9991
2 43208  55.3616 120.9461 0006675 310.1355 222.1633  1.86231713 24467
BEIDOU-3 M7 (C29)       
1 43245U 18029A   21260.66375837 -.00000117  00000-0  00000+0 0  9993
2 43245  55.2981 359.7712 0001190 172.2971 181.9272  1.86232471 23609
BEIDOU-3 M8 (C30)       
1 43246U 18029B   21260.61263804 -.00000117  00000-0  10000-3 0  9994
2 43246  55.2967 359.8025 0002836 353.7101  12.5203  1.86232799 23607
BEIDOU IGSO-7 (C16)     
1 43539U 18057A   21260.88536549 -.00000185  00000-0  00000-0 0  9999
2 43539  55.0642 178.1313 0041282 224.3435  24.5680  1.00293695 11778
BEIDOU-3 M9 (C23)       
1 43581U 18062A   21260.61424728  .00000009  00000-0  00000-0 0  9992
2 43581  54.3693 241.4340 0006380 271.7334 305.8683  1.86231941 21343
BEIDOU-3 M10 (C24)      
1 43582U 18062B   21261.01758270  .00000003  00000-0  00000+0 0  9993
2 43582  54.3681 241.4100 0005367 328.3189 251.1349  1.86232305 21354
BEIDOU-3 M11 (C25)      
1 43602U 18067A   21260.95066707  .00000002  00000-0  00000-0 0  9990
2 43602  54.4465 240.0028 0006851 350.7316 225.8972  1.86231620 20844
BEIDOU-3 M12 (C26)      
1 43603U 18067B   21260.55139053  .00000009  00000-0  00000-0 0  9999
2 43603  54.4439 239.9847 0004411 332.1924 247.1801  1.86231560 20853
BEIDOU-3 M13 (C32)      
1 43622U 18072A   21260.61146291  .00000014  00000-0  00000+0 0  9990
2 43622  55.3275 120.5278 0005223 293.9320 355.7282  1.86231992 20365
BEIDOU-3 M14 (C33)      
1 43623U 18072B   21261.01030339  .00000018  00000-0  00000+0 0  9995
2 43623  55.3298 120.5056 0003782 330.8234 316.4722  1.86231996 20376
BEIDOU-3 M15 (C34)      
1 43647U 18078A   21260.30917644 -.00000117  00000-0  10000-3 0  9997
2 43647  55.1949 359.9640 0005176   1.3975  71.0455  1.86232913 19871
BEIDOU-3 M16 (C35)      
1 43648U 18078B   21260.73838039 -.00000117  00000-0  00000-0 0  9991
2 43648  55.1897 359.9559 0003177  19.6856 248.8145  1.86232417 19893
BEIDOU-3 G1 (C59)       
1 43683U 18085A   21260.96300556 -.00000303  00000-0  00000+0 0  9997
2 43683   0.9329 214.8188 0004140  19.3611 249.6130  1.00274628 10670
BEIDOU-3 M17 (C36)      
1 43706U 18093A   21260.49096325  .00000011  00000-0  00000-0 0  9992
2 43706  54.4508 241.3035 0011545 272.5724  87.2761  1.86231784 19259
BEIDOU-3 M18 (C37)      
1 43707U 18093B   21261.22599218 -.00000000  00000-0  00000+0 0  9992
2 43707  54.4510 241.2696 0010073 290.8176 292.7822  1.86232187 19253
BEIDOU-3 IGSO-1 (C38)   
1 44204U 19023A   21260.70552336 -.00000195  00000-0  00000-0 0  9997
2 44204  56.1569  55.9171 0022506 184.7938 127.5005  1.00293309  8972
BEIDOU-2 G8             
1 44231U 19027A   21260.89209722 -.00000271  00000-0  00000-0 0  9994
2 44231   0.2938  33.3030 0006919 162.6216 266.8018  1.00273393  8691
BEIDOU-3 IGSO-2 (C39)   
1 44337U 19035A   21260.64051418 -.00000189  00000-0  00000-0 0  9998
2 44337  55.0988 174.1661 0020134 183.5685 348.6454  1.00284796  8313
BEIDOU-3 M23 (C45)      
1 44542U 19061A   21260.75229402  .00000007  00000-0  10000-3 0  9999
2 44542  54.6754 241.3820 0009267 318.1922 260.5436  1.86231482 13502
BEIDOU-3 M24 (C46)      
1 44543U 19061B   21260.88719293  .00000005  00000-0  10000-3 0  9994
2 44543  54.6734 241.3480 0007004 303.3521 276.8029  1.86231848 13505
BEIDOU-3 IGSO-3         
1 44709U 19073A   21260.64473872 -.00000150  00000-0  00000+0 0  9992
2 44709  57.6988 299.2127 0020565 184.2126 224.4838  1.00289460  7078
BEIDOU-3 M21            
1 44793U 19078A   21260.41260917 -.00000117  00000-0  10000-3 0  9997
2 44793  55.0428   0.0156 0005096   8.4576  87.6391  1.86232066 12365
BEIDOU-3 M22            
1 44794U 19078B   21260.80539360 -.00000118  00000-0  00000+0 0  9998
2 44794  55.0174 359.9980 0003162   7.0898 263.5212  1.86233021 12368
BEIDOU-3 M19            
1 44864U 19090A   21261.08267222  .00000018  00000-0  00000+0 0  9994
2 44864  55.2633 120.7380 0014821 267.6437  23.4598  1.86232038 11954
BEIDOU-3 M20            
1 44865U 19090B   21260.95036411  .00000017  00000-0  00000+0 0  9993
2 44865  55.2654 120.7740 0013522 284.1848   8.1203  1.86232015 11920
BEIDOU-3 G2             
1 45344U 20017A   21260.87927615 -.00000165  00000-0  00000-0 0  9999
2 45344   2.3214 339.7199 0003718 161.4348 252.4372  1.00271249  5894
BEIDOU-3 G3             
1 45807U 20040A   21260.96492163 -.00000379  00000-0  00000-0 0  9991
2 45807   2.0742 298.9092 0008756 335.8421 180.1283  1.00265212  4705
